CCSDS_OMM_VERS = 2.0
CREATION_DATE  = 
ORIGINATOR     = 

OBJECT_NAME    = STARLINK-36575
OBJECT_ID      = 2026-016J
CENTER_NAME    = EARTH
REF_FRAME      = TEME
TIME_SYSTEM    = UTC
MEAN_ELEMENT_THEORY = SGP/SGP4

EPOCH          = 2026-02-05T06:00:02.999808
MEAN_MOTION    = 15.85422703
ECCENTRICITY   = .00016223
INCLINATION    = 97.2799
RA_OF_ASC_NODE = 95.0316
ARG_OF_PERICENTER = 74.0281
MEAN_ANOMALY   = 149.4252

EPHEMERIS_TYPE = 0
CLASSIFICATION_TYPE = U
NORAD_CAT_ID   = 67569
ELEMENT_SET_NO = 999
REV_AT_EPOCH   = 283
BSTAR          = -.81946361E-2
MEAN_MOTION_DOT = -.1694689E-1
MEAN_MOTION_DDOT = 0

CCSDS_OMM_VERS = 2.0
CREATION_DATE  = 
ORIGINATOR     = 

OBJECT_NAME    = STARLINK-36562
OBJECT_ID      = 2026-016K
CENTER_NAME    = EARTH
REF_FRAME      = TEME
TIME_SYSTEM    = UTC
MEAN_ELEMENT_THEORY = SGP/SGP4

EPOCH          = 2026-02-05T06:00:02.999808
MEAN_MOTION    = 15.85609871
ECCENTRICITY   = .00013281
INCLINATION    = 97.2794
RA_OF_ASC_NODE = 95.0329
ARG_OF_PERICENTER = 85.4824
MEAN_ANOMALY   = 142.3332

EPHEMERIS_TYPE = 0
CLASSIFICATION_TYPE = U
NORAD_CAT_ID   = 67570
ELEMENT_SET_NO = 999
REV_AT_EPOCH   = 283
BSTAR          = -.81435264E-2
MEAN_MOTION_DOT = -.169858E-1
MEAN_MOTION_DDOT = 0

CCSDS_OMM_VERS = 2.0
CREATION_DATE  = 
ORIGINATOR     = 

OBJECT_NAME    = STARLINK-36578
OBJECT_ID      = 2026-016L
CENTER_NAME    = EARTH
REF_FRAME      = TEME
TIME_SYSTEM    = UTC
MEAN_ELEMENT_THEORY = SGP/SGP4

EPOCH          = 2026-02-05T06:00:02.999808
MEAN_MOTION    = 15.85812862
ECCENTRICITY   = .00015684
INCLINATION    = 97.2795
RA_OF_ASC_NODE = 95.0346
ARG_OF_PERICENTER = 74.4356
MEAN_ANOMALY   = 158.3329

EPHEMERIS_TYPE = 0
CLASSIFICATION_TYPE = U
NORAD_CAT_ID   = 67571
ELEMENT_SET_NO = 999
REV_AT_EPOCH   = 281
BSTAR          = -.80018978E-2
MEAN_MOTION_DOT = -.1687575E-1
MEAN_MOTION_DDOT = 0

CCSDS_OMM_VERS = 2.0
CREATION_DATE  = 
ORIGINATOR     = 

OBJECT_NAME    = STARLINK-36350
OBJECT_ID      = 2026-016M
CENTER_NAME    = EARTH
REF_FRAME      = TEME
TIME_SYSTEM    = UTC
MEAN_ELEMENT_THEORY = SGP/SGP4

EPOCH          = 2026-02-05T06:00:02.999808
MEAN_MOTION    = 15.86076577
ECCENTRICITY   = .00014925
INCLINATION    = 97.2796
RA_OF_ASC_NODE = 95.0374
ARG_OF_PERICENTER = 71.7156
MEAN_ANOMALY   = 167.1636

EPHEMERIS_TYPE = 0
CLASSIFICATION_TYPE = U
NORAD_CAT_ID   = 67572
ELEMENT_SET_NO = 999
REV_AT_EPOCH   = 272
BSTAR          = -.78673242E-2
MEAN_MOTION_DOT = -.168153E-1
MEAN_MOTION_DDOT = 0

CCSDS_OMM_VERS = 2.0
CREATION_DATE  = 
ORIGINATOR     = 

OBJECT_NAME    = STARLINK-36588
OBJECT_ID      = 2026-016N
CENTER_NAME    = EARTH
REF_FRAME      = TEME
TIME_SYSTEM    = UTC
MEAN_ELEMENT_THEORY = SGP/SGP4

EPOCH          = 2026-02-05T06:00:02.999808
MEAN_MOTION    = 15.86373317
ECCENTRICITY   = .00014323
INCLINATION    = 97.2787
RA_OF_ASC_NODE = 95.0397
ARG_OF_PERICENTER = 73.7820
MEAN_ANOMALY   = 171.9197

EPHEMERIS_TYPE = 0
CLASSIFICATION_TYPE = U
NORAD_CAT_ID   = 67573
ELEMENT_SET_NO = 999
REV_AT_EPOCH   = 288
BSTAR          = -.77318039E-2
MEAN_MOTION_DOT = -.1677321E-1
MEAN_MOTION_DDOT = 0

CCSDS_OMM_VERS = 2.0
CREATION_DATE  = 
ORIGINATOR     = 

OBJECT_NAME    = STARLINK-36594
OBJECT_ID      = 2026-016P
CENTER_NAME    = EARTH
REF_FRAME      = TEME
TIME_SYSTEM    = UTC
MEAN_ELEMENT_THEORY = SGP/SGP4

EPOCH          = 2026-02-05T06:00:02.999808
MEAN_MOTION    = 15.86547870
ECCENTRICITY   = .00014586
INCLINATION    = 97.2782
RA_OF_ASC_NODE = 95.0409
ARG_OF_PERICENTER = 81.6591
MEAN_ANOMALY   = 168.1798

EPHEMERIS_TYPE = 0
CLASSIFICATION_TYPE = U
NORAD_CAT_ID   = 67574
ELEMENT_SET_NO = 999
REV_AT_EPOCH   = 288
BSTAR          = -.76892663E-2
MEAN_MOTION_DOT = -.1681799E-1
MEAN_MOTION_DDOT = 0

CCSDS_OMM_VERS = 2.0
CREATION_DATE  = 
ORIGINATOR     = 

OBJECT_NAME    = STARLINK-36400
OBJECT_ID      = 2026-016Q
CENTER_NAME    = EARTH
REF_FRAME      = TEME
TIME_SYSTEM    = UTC
MEAN_ELEMENT_THEORY = SGP/SGP4

EPOCH          = 2026-02-05T06:00:02.999808
MEAN_MOTION    = 15.86736869
ECCENTRICITY   = .00013995
INCLINATION    = 97.2787
RA_OF_ASC_NODE = 95.0436
ARG_OF_PERICENTER = 81.4338
MEAN_ANOMALY   = 172.9689

EPHEMERIS_TYPE = 0
CLASSIFICATION_TYPE = U
NORAD_CAT_ID   = 67575
ELEMENT_SET_NO = 999
REV_AT_EPOCH   = 277
BSTAR          = -.75572628E-2
MEAN_MOTION_DOT = -.1670058E-1
MEAN_MOTION_DDOT = 0

CCSDS_OMM_VERS = 2.0
CREATION_DATE  = 
ORIGINATOR     = 

OBJECT_NAME    = STARLINK-36591
OBJECT_ID      = 2026-016R
CENTER_NAME    = EARTH
REF_FRAME      = TEME
TIME_SYSTEM    = UTC
MEAN_ELEMENT_THEORY = SGP/SGP4

EPOCH          = 2026-02-05T06:00:02.999808
MEAN_MOTION    = 15.86936347
ECCENTRICITY   = .00014184
INCLINATION    = 97.2781
RA_OF_ASC_NODE = 95.0448
ARG_OF_PERICENTER = 74.5778
MEAN_ANOMALY   = 184.5465

EPHEMERIS_TYPE = 0
CLASSIFICATION_TYPE = U
NORAD_CAT_ID   = 67576
ELEMENT_SET_NO = 999
REV_AT_EPOCH   = 283
BSTAR          = -.74621813E-2
MEAN_MOTION_DOT = -.1665966E-1
MEAN_MOTION_DDOT = 0

CCSDS_OMM_VERS = 2.0
CREATION_DATE  = 
ORIGINATOR     = 

OBJECT_NAME    = STARLINK-36590
OBJECT_ID      = 2026-016S
CENTER_NAME    = EARTH
REF_FRAME      = TEME
TIME_SYSTEM    = UTC
MEAN_ELEMENT_THEORY = SGP/SGP4

EPOCH          = 2026-02-05T06:00:02.999808
MEAN_MOTION    = 15.87121424
ECCENTRICITY   = .00013399
INCLINATION    = 97.2776
RA_OF_ASC_NODE = 95.0467
ARG_OF_PERICENTER = 76.8354
MEAN_ANOMALY   = 186.5975

EPHEMERIS_TYPE = 0
CLASSIFICATION_TYPE = U
NORAD_CAT_ID   = 67577
ELEMENT_SET_NO = 999
REV_AT_EPOCH   = 283
BSTAR          = -.73847123E-2
MEAN_MOTION_DOT = -.1664012E-1
MEAN_MOTION_DDOT = 0

CCSDS_OMM_VERS = 2.0
CREATION_DATE  = 
ORIGINATOR     = 

OBJECT_NAME    = STARLINK-36613
OBJECT_ID      = 2026-016T
CENTER_NAME    = EARTH
REF_FRAME      = TEME
TIME_SYSTEM    = UTC
MEAN_ELEMENT_THEORY = SGP/SGP4

EPOCH          = 2026-02-05T06:00:02.999808
MEAN_MOTION    = 15.87340686
ECCENTRICITY   = .00012816
INCLINATION    = 97.2773
RA_OF_ASC_NODE = 95.0485
ARG_OF_PERICENTER = 80.7004
MEAN_ANOMALY   = 187.8731

EPHEMERIS_TYPE = 0
CLASSIFICATION_TYPE = U
NORAD_CAT_ID   = 67578
ELEMENT_SET_NO = 999
REV_AT_EPOCH   = 283
BSTAR          = -.72783605E-2
MEAN_MOTION_DOT = -.1658667E-1
MEAN_MOTION_DDOT = 0

CCSDS_OMM_VERS = 2.0
CREATION_DATE  = 
ORIGINATOR     = 

OBJECT_NAME    = STARLINK-36571
OBJECT_ID      = 2026-016U
CENTER_NAME    = EARTH
REF_FRAME      = TEME
TIME_SYSTEM    = UTC
MEAN_ELEMENT_THEORY = SGP/SGP4

EPOCH          = 2026-02-05T06:00:02.999808
MEAN_MOTION    = 15.87624521
ECCENTRICITY   = .0001414
INCLINATION    = 97.2775
RA_OF_ASC_NODE = 95.0521
ARG_OF_PERICENTER = 75.6378
MEAN_ANOMALY   = 199.4917

EPHEMERIS_TYPE = 0
CLASSIFICATION_TYPE = U
NORAD_CAT_ID   = 67579
ELEMENT_SET_NO = 999
REV_AT_EPOCH   = 283
BSTAR          = -.71246715E-2
MEAN_MOTION_DOT = -.1648321E-1
MEAN_MOTION_DDOT = 0

CCSDS_OMM_VERS = 2.0
CREATION_DATE  = 
ORIGINATOR     = 

OBJECT_NAME    = STARLINK-36612
OBJECT_ID      = 2026-016V
CENTER_NAME    = EARTH
REF_FRAME      = TEME
TIME_SYSTEM    = UTC
MEAN_ELEMENT_THEORY = SGP/SGP4

EPOCH          = 2026-02-05T06:00:02.999808
MEAN_MOTION    = 15.87844927
ECCENTRICITY   = .00013987
INCLINATION    = 97.2771
RA_OF_ASC_NODE = 95.0537
ARG_OF_PERICENTER = 72.7754
MEAN_ANOMALY   = 207.1927

EPHEMERIS_TYPE = 0
CLASSIFICATION_TYPE = U
NORAD_CAT_ID   = 67580
ELEMENT_SET_NO = 999
REV_AT_EPOCH   = 283
BSTAR          = -.71096377E-2
MEAN_MOTION_DOT = -.1661082E-1
MEAN_MOTION_DDOT = 0

CCSDS_OMM_VERS = 2.0
CREATION_DATE  = 
ORIGINATOR     = 

OBJECT_NAME    = STARLINK-36632
OBJECT_ID      = 2026-016W
CENTER_NAME    = EARTH
REF_FRAME      = TEME
TIME_SYSTEM    = UTC
MEAN_ELEMENT_THEORY = SGP/SGP4

EPOCH          = 2026-02-05T06:00:02.999808
MEAN_MOTION    = 15.88435550
ECCENTRICITY   = .00013646
INCLINATION    = 97.2767
RA_OF_ASC_NODE = 95.0599
ARG_OF_PERICENTER = 72.6160
MEAN_ANOMALY   = 220.9688

EPHEMERIS_TYPE = 0
CLASSIFICATION_TYPE = U
NORAD_CAT_ID   = 67581
ELEMENT_SET_NO = 999
REV_AT_EPOCH   = 283
BSTAR          = -.67702179E-2
MEAN_MOTION_DOT = -.1633137E-1
MEAN_MOTION_DDOT = 0

CCSDS_OMM_VERS = 2.0
CREATION_DATE  = 
ORIGINATOR     = 

OBJECT_NAME    = STARLINK-36609
OBJECT_ID      = 2026-016X
CENTER_NAME    = EARTH
REF_FRAME      = TEME
TIME_SYSTEM    = UTC
MEAN_ELEMENT_THEORY = SGP/SGP4

EPOCH          = 2026-02-05T06:00:02.999808
MEAN_MOTION    = 15.88639107
ECCENTRICITY   = .00013862
INCLINATION    = 97.2765
RA_OF_ASC_NODE = 95.0617
ARG_OF_PERICENTER = 72.3813
MEAN_ANOMALY   = 225.8390

EPHEMERIS_TYPE = 0
CLASSIFICATION_TYPE = U
NORAD_CAT_ID   = 67582
ELEMENT_SET_NO = 999
REV_AT_EPOCH   = 283
BSTAR          = -.67111249E-2
MEAN_MOTION_DOT = -.1635224E-1
MEAN_MOTION_DDOT = 0

CCSDS_OMM_VERS = 2.0
CREATION_DATE  = 
ORIGINATOR     = 

OBJECT_NAME    = STARLINK-36577
OBJECT_ID      = 2026-016Y
CENTER_NAME    = EARTH
REF_FRAME      = TEME
TIME_SYSTEM    = UTC
MEAN_ELEMENT_THEORY = SGP/SGP4

EPOCH          = 2026-02-05T06:00:02.999808
MEAN_MOTION    = 15.88120062
ECCENTRICITY   = .00012877
INCLINATION    = 97.2763
RA_OF_ASC_NODE = 95.0561
ARG_OF_PERICENTER = 75.7788
MEAN_ANOMALY   = 210.5831

EPHEMERIS_TYPE = 0
CLASSIFICATION_TYPE = U
NORAD_CAT_ID   = 67583
ELEMENT_SET_NO = 999
REV_AT_EPOCH   = 283
BSTAR          = -.69452287E-2
MEAN_MOTION_DOT = -.1647022E-1
MEAN_MOTION_DDOT = 0

